STARLINK-31921          
1 59868U 24098L   26068.50810017 -.00003771  00000+0 -12766-3 0  9997
2 59868  43.0058 238.6667 0001977 279.3579  80.7049 15.27557354102276
FLOCK 4G-14             
1 62667U 25009BL  26068.75869712  .00011310  00000+0  42676-3 0  9993
2 62667  97.4064 151.1836 0003006 318.3639  41.7371 15.27197201 63711
